[{"OBJECT_NAME":"COSMOS 1953","OBJECT_ID":"1988-050A","EPOCH":"2026-03-05T19:53:09.625632","MEAN_MOTION":15.28442834,"ECCENTRICITY":0.00123411,"INCLINATION":82.5106,"RA_OF_ASC_NODE":162.1287,"ARG_OF_PERICENTER":134.8339,"MEAN_ANOMALY":225.3906,"EPHEMERIS_TYPE":0,"CLASSIFICATION_TYPE":"U","NORAD_CAT_ID":19210,"ELEMENT_SET_NO":999,"REV_AT_EPOCH":3719,"BSTAR":0.00038165118,"MEAN_MOTION_DOT":0.00010622,"MEAN_MOTION_DDOT":0},{"OBJECT_NAME":"SL-8 R/B","OBJECT_ID":"1988-053B","EPOCH":"2026-03-05T15:13:13.591776","MEAN_MOTION":14.38913126,"ECCENTRICITY":0.0021348,"INCLINATION":74.0466,"RA_OF_ASC_NODE":119.9422,"ARG_OF_PERICENTER":299.8199,"MEAN_ANOMALY":173.7495,"EPHEMERIS_TYPE":0,"CLASSIFICATION_TYPE":"U","NORAD_CAT_ID":19257,"ELEMENT_SET_NO":999,"REV_AT_EPOCH":97601,"BSTAR":0.00012839,"MEAN_MOTION_DOT":3.7e-6,"MEAN_MOTION_DDOT":0},{"OBJECT_NAME":"COSMOS 1975","OBJECT_ID":"1988-093A","EPOCH":"2026-03-05T14:22:52.435200","MEAN_MOTION":15.2799841,"ECCENTRICITY":0.0011841,"INCLINATION":82.5192,"RA_OF_ASC_NODE":121.7917,"ARG_OF_PERICENTER":177.2898,"MEAN_ANOMALY":182.8407,"EPHEMERIS_TYPE":0,"CLASSIFICATION_TYPE":"U","NORAD_CAT_ID":19573,"ELEMENT_SET_NO":999,"REV_AT_EPOCH":1878,"BSTAR":0.00032709,"MEAN_MOTION_DOT":8.983e-5,"MEAN_MOTION_DDOT":0},{"OBJECT_NAME":"SL-14 R/B","OBJECT_ID":"1988-093B","EPOCH":"2026-03-05T22:57:16.509312","MEAN_MOTION":14.85650663,"ECCENTRICITY":0.00219923,"INCLINATION":82.5298,"RA_OF_ASC_NODE":45.5484,"ARG_OF_PERICENTER":53.2053,"MEAN_ANOMALY":0.1988,"EPHEMERIS_TYPE":0,"CLASSIFICATION_TYPE":"U","NORAD_CAT_ID":19574,"ELEMENT_SET_NO":999,"REV_AT_EPOCH":46,"BSTAR":7.9947607e-5,"MEAN_MOTION_DOT":7.2e-6,"MEAN_MOTION_DDOT":0},{"OBJECT_NAME":"SL-16 R/B","OBJECT_ID":"1988-102B","EPOCH":"2026-03-05T16:00:14.133600","MEAN_MOTION":14.16149885,"ECCENTRICITY":0.00136968,"INCLINATION":71,"RA_OF_ASC_NODE":159.9612,"ARG_OF_PERICENTER":7.8268,"MEAN_ANOMALY":352.3066,"EPHEMERIS_TYPE":0,"CLASSIFICATION_TYPE":"U","NORAD_CAT_ID":19650,"ELEMENT_SET_NO":999,"REV_AT_EPOCH":92632,"BSTAR":9.6024972e-5,"MEAN_MOTION_DOT":1.42e-6,"MEAN_MOTION_DDOT":0},{"OBJECT_NAME":"INTERCOSMOS 24","OBJECT_ID":"1989-080A","EPOCH":"2026-03-05T14:13:38.529984","MEAN_MOTION":12.59550817,"ECCENTRICITY":0.118677,"INCLINATION":82.6031,"RA_OF_ASC_NODE":107.0723,"ARG_OF_PERICENTER":302.3389,"MEAN_ANOMALY":46.8135,"EPHEMERIS_TYPE":0,"CLASSIFICATION_TYPE":"U","NORAD_CAT_ID":20261,"ELEMENT_SET_NO":999,"REV_AT_EPOCH":66628,"BSTAR":0.00028585,"MEAN_MOTION_DOT":9.61e-6,"MEAN_MOTION_DDOT":0},{"OBJECT_NAME":"SL-14 R/B","OBJECT_ID":"1989-080C","EPOCH":"2026-03-05T17:09:24.590016","MEAN_MOTION":12.50488178,"ECCENTRICITY":0.12304187,"INCLINATION":82.5972,"RA_OF_ASC_NODE":175.737,"ARG_OF_PERICENTER":193.8321,"MEAN_ANOMALY":162.6001,"EPHEMERIS_TYPE":0,"CLASSIFICATION_TYPE":"U","NORAD_CAT_ID":20262,"ELEMENT_SET_NO":999,"REV_AT_EPOCH":65965,"BSTAR":0.00027084394,"MEAN_MOTION_DOT":9.09e-6,"MEAN_MOTION_DDOT":0},{"OBJECT_NAME":"DELTA 1 R/B","OBJECT_ID":"1989-089B","EPOCH":"2026-03-05T13:13:47.217216","MEAN_MOTION":14.50659365,"ECCENTRICITY":0.007021,"INCLINATION":97.0708,"RA_OF_ASC_NODE":272.6481,"ARG_OF_PERICENTER":134.8691,"MEAN_ANOMALY":225.8238,"EPHEMERIS_TYPE":0,"CLASSIFICATION_TYPE":"U","NORAD_CAT_ID":20323,"ELEMENT_SET_NO":999,"REV_AT_EPOCH":89513,"BSTAR":0.00013091,"MEAN_MOTION_DOT":4.96e-6,"MEAN_MOTION_DDOT":0},{"OBJECT_NAME":"ARIANE 40 R/B","OBJECT_ID":"1990-005H","EPOCH":"2026-03-05T18:47:34.897920","MEAN_MOTION":14.39867547,"ECCENTRICITY":0.0009605,"INCLINATION":98.3092,"RA_OF_ASC_NODE":125.5608,"ARG_OF_PERICENTER":210.5753,"MEAN_ANOMALY":149.4877,"EPHEMERIS_TYPE":0,"CLASSIFICATION_TYPE":"U","NORAD_CAT_ID":20443,"ELEMENT_SET_NO":999,"REV_AT_EPOCH":89224,"BSTAR":0.00013441243,"MEAN_MOTION_DOT":3.8e-6,"MEAN_MOTION_DDOT":0},{"OBJECT_NAME":"DELTA 2 R/B(1)","OBJECT_ID":"1990-008B","EPOCH":"2026-03-05T17:12:02.383200","MEAN_MOTION":15.55380339,"ECCENTRICITY":0.00863063,"INCLINATION":35.6041,"RA_OF_ASC_NODE":200.9171,"ARG_OF_PERICENTER":222.0016,"MEAN_ANOMALY":137.4078,"EPHEMERIS_TYPE":0,"CLASSIFICATION_TYPE":"U","NORAD_CAT_ID":20453,"ELEMENT_SET_NO":999,"REV_AT_EPOCH":92551,"BSTAR":0.0009568822,"MEAN_MOTION_DOT":0.00080331,"MEAN_MOTION_DDOT":0},{"OBJECT_NAME":"COSMOS 2058","OBJECT_ID":"1990-010A","EPOCH":"2026-03-05T22:34:09.475680","MEAN_MOTION":15.11279556,"ECCENTRICITY":0.00096829,"INCLINATION":82.467,"RA_OF_ASC_NODE":51.1216,"ARG_OF_PERICENTER":356.0267,"MEAN_ANOMALY":4.0884,"EPHEMERIS_TYPE":0,"CLASSIFICATION_TYPE":"U","NORAD_CAT_ID":20465,"ELEMENT_SET_NO":999,"REV_AT_EPOCH":94167,"BSTAR":0.00028070857,"MEAN_MOTION_DOT":4.756e-5,"MEAN_MOTION_DDOT":0},{"OBJECT_NAME":"SL-14 R/B","OBJECT_ID":"1990-010B","EPOCH":"2026-03-05T23:27:21.539232","MEAN_MOTION":14.83564862,"ECCENTRICITY":0.00187682,"INCLINATION":82.4991,"RA_OF_ASC_NODE":270.8769,"ARG_OF_PERICENTER":315.3173,"MEAN_ANOMALY":44.6529,"EPHEMERIS_TYPE":0,"CLASSIFICATION_TYPE":"U","NORAD_CAT_ID":20466,"ELEMENT_SET_NO":999,"REV_AT_EPOCH":92793,"BSTAR":5.6099217e-5,"MEAN_MOTION_DOT":4.87e-6,"MEAN_MOTION_DDOT":0},{"OBJECT_NAME":"SL-14 R/B","OBJECT_ID":"1990-018B","EPOCH":"2026-03-05T22:10:41.760480","MEAN_MOTION":14.8213956,"ECCENTRICITY":0.00176391,"INCLINATION":82.5195,"RA_OF_ASC_NODE":226.6094,"ARG_OF_PERICENTER":103.4699,"MEAN_ANOMALY":256.8482,"EPHEMERIS_TYPE":0,"CLASSIFICATION_TYPE":"U","NORAD_CAT_ID":20511,"ELEMENT_SET_NO":999,"REV_AT_EPOCH":92202,"BSTAR":7.6436917e-5,"MEAN_MOTION_DOT":6.33e-6,"MEAN_MOTION_DDOT":0},{"OBJECT_NAME":"HST","OBJECT_ID":"1990-037B","EPOCH":"2026-03-05T02:44:22.469280","MEAN_MOTION":15.29398003,"ECCENTRICITY":0.00017656,"INCLINATION":28.4704,"RA_OF_ASC_NODE":71.2101,"ARG_OF_PERICENTER":80.6022,"MEAN_ANOMALY":279.4773,"EPHEMERIS_TYPE":0,"CLASSIFICATION_TYPE":"U","NORAD_CAT_ID":20580,"ELEMENT_SET_NO":999,"REV_AT_EPOCH":77261,"BSTAR":0.00033044046,"MEAN_MOTION_DOT":9.931e-5,"MEAN_MOTION_DDOT":0},{"OBJECT_NAME":"SL-16 R/B","OBJECT_ID":"1990-046B","EPOCH":"2026-03-05T22:48:45.384192","MEAN_MOTION":14.15013791,"ECCENTRICITY":0.00161957,"INCLINATION":70.9995,"RA_OF_ASC_NODE":305.7678,"ARG_OF_PERICENTER":304.5886,"MEAN_ANOMALY":55.3708,"EPHEMERIS_TYPE":0,"CLASSIFICATION_TYPE":"U","NORAD_CAT_ID":20625,"ELEMENT_SET_NO":999,"REV_AT_EPOCH":84786,"BSTAR":-9.3290873e-5,"MEAN_MOTION_DOT":-2.29e-6,"MEAN_MOTION_DDOT":0},{"OBJECT_NAME":"COSMOS 2084","OBJECT_ID":"1990-055A","EPOCH":"2026-03-05T22:28:16.835808","MEAN_MOTION":15.05623123,"ECCENTRICITY":0.00177031,"INCLINATION":62.7925,"RA_OF_ASC_NODE":348.3787,"ARG_OF_PERICENTER":189.0297,"MEAN_ANOMALY":171.0488,"EPHEMERIS_TYPE":0,"CLASSIFICATION_TYPE":"U","NORAD_CAT_ID":20663,"ELEMENT_SET_NO":999,"REV_AT_EPOCH":93575,"BSTAR":0.00023136621,"MEAN_MOTION_DOT":3.163e-5,"MEAN_MOTION_DDOT":0},{"OBJECT_NAME":"SL-6 R/B(2)","OBJECT_ID":"1990-055D","EPOCH":"2026-03-05T21:55:53.763744","MEAN_MOTION":15.03571825,"ECCENTRICITY":0.00241774,"INCLINATION":62.782,"RA_OF_ASC_NODE":266.6918,"ARG_OF_PERICENTER":346.0712,"MEAN_ANOMALY":13.9718,"EPHEMERIS_TYPE":0,"CLASSIFICATION_TYPE":"U","NORAD_CAT_ID":20666,"ELEMENT_SET_NO":999,"REV_AT_EPOCH":93762,"BSTAR":0.00017991821,"MEAN_MOTION_DOT":2.283e-5,"MEAN_MOTION_DDOT":0}]
